{{Infobox Planet  
| name = 508 Princetonia
| image = 
| caption = 
| discovery=yes | physical_characteristics = yes | bgcolour=#FFFFC0
| discovery_ref = 
| discoverer = [[雷蒙德·史密斯·杜根|雷蒙德·史密斯·杜根]]
| discovery_site = [[海德堡|海德堡]]
| discovered =  1903年4月20日
| mp_name = 508| alt_names = 1903 LQ
| named_after = [[普林斯顿大学|普林斯顿大学]]
| mp_category=[[小行星带|主带小行星]]
| orbit_ref = <ref>[http://ssd.jpl.nasa.gov/sbdb.cgi?sstr=508 508 Princetonia (1903 LQ)]</ref>
| epoch = 2011年8月27日
| semimajor= 3.158803368725388AU
| perihelion=3.119635068448087AU
| aphelion= 3.197971669002688[[天文单位|AU]]
| eccentricity =0.01239972727175653					
| period = 2050.606433668546[[日|地球日]]<br>5.61[[年|地球年]] 
| inclination=13.36506030132444[[角度|°]]
| asc_node=44.48473619460552°
| arg_peri=180.8041630428279°
| mean_anomaly=83.83079747827288°
| avg_speed=
 | dimensions=142.35千米
 | mass=
 | density=
 | surface_grav=
 | escape_velocity=
 | rotation=52.8小时
 | spectral_type=[[C-型小行星|C]]
 | magnitude=
 | abs_magnitude=8.24
 | albedo=0.0441	
 | single_temperature=
}}
'''小行星508'''（'''508 Princetonia'''），是由[[美国|美国]][[天文学家|天文学家]][[雷蒙德·史密斯·杜根|雷蒙德·史密斯·杜根]]于1903年4月20日在[[德国|德国]][[海德堡|海德堡]][[王座山天文台|王座山天文台]]发现的[[小行星带|主带]][[小行星|小行星]]。

小行星508以位于美国[[新泽西州|新泽西州]]的名校[[普林斯顿大学|普林斯顿大学]]命名。

== 参考资料 ==
{{Reflist}}

{{Minor Planet Number|(507)[[小行星507|小行星507]]|(509)[[小行星509|小行星509]]}}

[[Category:小行星带天体|Category:小行星带天体]]
[[Category:1903年发现的小行星|Category:1903年发现的小行星]]